LANDSAT 9               
1 49260U 21088A   24133.80610626  .00001829  00000+0  41560-3 0  9990
2 49260  98.1882 204.0215 0001274  88.1587 271.9757 14.57130732139536
